STARLINK-11210 [DTC]    
1 60116U 24118D   25249.69994964  .00002175  00000+0  22771-4 0  9995
2 60116  53.1598  48.4125 0000784 121.6550 238.4544 15.69742986 69091
STARLINK-11203 [DTC]    
1 60117U 24118E   25249.69505471  .00001557  00000+0  17693-4 0  9997
2 60117  53.1584  48.3804 0000704  89.6943 270.4156 15.69726110 69097
STARLINK-11177 [DTC]    
1 60118U 24118F   25249.75381529 -.00000008  00000+0  47851-5 0  9992
2 60118  53.1583  48.0327 0000692  79.1535 280.9561 15.69743235 69106
STARLINK-11127 [DTC]    
1 60119U 24118G   25249.74892539  .00027971  00000+0  23478-3 0  9994
2 60119  53.1569  48.0007 0001381  55.0552 305.0595 15.69727642 69104
STARLINK-11164 [DTC]    
1 60120U 24118H   25249.74399348 -.00000184  00000+0  33234-5 0  9997
2 60120  53.1583  47.9678 0000196 351.0657   9.0357 15.69750983 69103
STARLINK-11119 [DTC]    
1 60121U 24118J   25249.72928825 -.00002357  00000+0 -14590-4 0  9992
2 60121  53.1583  47.8733 0000561  68.0568 292.0509 15.69744213 69109
STARLINK-11157 [DTC]    
1 60122U 24118K   25249.73418574 -.00001118  00000+0 -43728-5 0  9999
2 60122  53.1592  47.9029 0000124 121.5479 238.5552 15.69753184 69100
STARLINK-11162 [DTC]    
1 60123U 24118L   25249.72438990  .00008935  00000+0  78573-4 0  9990
2 60123  53.1594  47.8374 0000842  71.7838 288.3271 15.69695784 69109
STARLINK-11161 [DTC]    
1 60124U 24118M   25249.71958418  .00015832  00000+0  13560-3 0  9990
2 60124  53.1583  48.5374 0000787 107.2753 252.8351 15.69653371 69094
STARLINK-11160 [DTC]    
1 60125U 24118N   25249.73910837  .00011494  00000+0  99482-4 0  9994
2 60125  53.1572  47.9331 0000907  76.3402 283.7717 15.69737081 69102
STARLINK-31846          
1 60126U 24118P   25249.93855562  .00001197  00000+0  52542-4 0  9995
2 60126  53.1607 160.1991 0001419  87.5132 272.6031 15.30206217 67569
STARLINK-31840          
1 60127U 24118Q   25249.94488566  .00000442  00000+0  27048-4 0  9998
2 60127  53.1603 160.2386 0001174 104.9715 255.1416 15.30211546 67568
STARLINK-31813          
1 60128U 24118R   25249.94172920  .00000631  00000+0  33410-4 0  9993
2 60128  53.1609 160.2197 0000874  51.9366 308.1714 15.30196314 67569
STARLINK-31845          
1 60129U 24118S   25249.93907668 -.00000289  00000+0  23851-5 0  9997
2 60129  53.1610 158.0639 0001253  97.5722 262.5421 15.30214305 67594
STARLINK-31838          
1 60130U 24118T   25249.95122120 -.00000564  00000+0 -69271-5 0  9996
2 60130  53.1612 160.2733 0001038  97.4341 262.6778 15.30207493 67568
STARLINK-31785          
1 60131U 24118U   25249.93433728  .00002350  00000+0  91439-4 0  9997
2 60131  53.1605 160.1706 0000841  82.6796 277.4300 15.30192813 67565
STARLINK-31792          
1 60132U 24118V   25249.92219282  .00000780  00000+0  38440-4 0  9992
2 60132  53.1594 157.9198 0000989  71.1216 288.9892 15.30205077 67598
STARLINK-32043          
1 60135U 24120A   25249.87088402 -.00000161  00000+0  66781-5 0  9994
2 60135  53.1600  93.6748 0001000 103.5883 256.5229 15.30204177 68238
STARLINK-32112          
1 60136U 24120B   25249.83722625 -.00000900  00000+0 -18259-4 0  9991
2 60136  53.1606  94.1789 0000911  84.4103 275.7001 15.30203751 68304
STARLINK-32050          
1 60137U 24120C   25249.84356371 -.00000608  00000+0 -84128-5 0  9998
2 60137  53.1592  94.2205 0000819  81.0810 279.0284 15.30200565 68229
STARLINK-32025          
1 60138U 24120D   25249.85399904 -.00000870  00000+0 -17266-4 0  9998
2 60138  53.1600  93.5684 0001046  82.7141 277.3979 15.30206486 68232
STARLINK-31867          
1 60139U 24120E   25249.83195251 -.00000753  00000+0 -13298-4 0  9997
2 60139  53.1606  94.1528 0001117  86.6005 273.5123 15.30199833 68229
STARLINK-31694          
1 60140U 24120F   25249.83511759 -.00000730  00000+0 -12537-4 0  9994
2 60140  53.1608  94.1643 0001276  90.8023 269.3124 15.30202509 68302
STARLINK-32036          
1 60141U 24120G   25249.83407501 -.00000411  00000+0 -17676-5 0  9990
2 60141  53.1606  94.1596 0000184 292.1454  67.9527 15.30171048 68302
STARLINK-32031          
1 60142U 24120H   25249.89304042 -.00004679  00000+0 -14586-3 0  9998
2 60142  53.1611  93.8130 0001076 133.6613 226.4478 15.30222006 68315
STARLINK-32027          
1 60143U 24120J   25249.84977201 -.00001047  00000+0 -23216-4 0  9994
2 60143  53.1605  93.5044 0001070  80.3161 279.7961 15.30205501 68319
STARLINK-32033          
1 60144U 24120K   25249.88988152 -.00000650  00000+0 -98116-5 0  9997
2 60144  53.1605  93.7934 0001031  81.0981 279.0137 15.30204963 68235
STARLINK-32029          
1 60145U 24120L   25249.81823842 -.00000054  00000+0  10301-4 0  9991
2 60145  53.1607  94.0549 0001110  97.9003 262.2124 15.30190561 68220
STARLINK-32127          
1 60146U 24120M   25249.84766895 -.00000378  00000+0 -64071-6 0  9994
2 60146  53.1602  93.5349 0001016  76.8449 283.2665 15.30204205 68238
STARLINK-32019          
1 60147U 24120N   25249.85716263 -.00000776  00000+0 -14090-4 0  9996
2 60147  53.1595  93.5866 0001069  65.6835 294.4277 15.30208880 68233
STARLINK-32021          
1 60148U 24120P   25249.86358254 -.00000943  00000+0 -19726-4 0  9997
2 60148  53.1607  83.6784 0000944  87.2217 272.8891 15.30199283 68454
STARLINK-32022          
1 60149U 24120Q   25249.80873785  .00001559  00000+0  64734-4 0  9994
2 60149  53.1594  93.9959 0000955 111.2785 248.8318 15.30197661 68307
STARLINK-32014          
1 60150U 24120R   25249.86455302  .00009509  00000+0  33263-3 0  9998
2 60150  53.1574  93.6336 0000809  85.6649 274.4444 15.30211226 68235
STARLINK-32004          
1 60151U 24120S   25249.86771973 -.00000648  00000+0 -97425-5 0  9993
2 60151  53.1598  93.6526 0001112 100.1839 259.9287 15.30202943 68313
STARLINK-32147          
1 60152U 24120T   25249.83828301 -.00001260  00000+0 -30431-4 0  9993
2 60152  53.1595  94.1840 0001082  74.6858 285.4263 15.30204213 68228
STARLINK-32131          
1 60153U 24120U   25249.88671318 -.00001252  00000+0 -30162-4 0  9995
2 60153  53.1612  93.7727 0001097  75.6839 284.4283 15.30202757 68316
STARLINK-32145          
1 60154U 24120V   25249.86032984 -.00002948  00000+0 -87412-4 0  9997
2 60154  53.1602  93.6054 0000857  58.1044 302.0040 15.30218585 68230
STARLINK-32137          
1 60155U 24120W   25249.87721675 -.00001181  00000+0 -27743-4 0  9990
2 60155  53.1598  93.7104 0001070 103.8575 256.2545 15.30202140 68237
STARLINK-32048          
1 60156U 24120X   25249.88038534 -.00001271  00000+0 -30797-4 0  9990
2 60156  53.1597  93.7317 0001082  89.2652 270.8473 15.30197811 68239
STARLINK-32129          
1 60157U 24120Y   25249.84461496 -.00000631  00000+0 -91747-5 0  9996
2 60157  53.1604  94.2199 0001091  86.6099 273.5027 15.30203613 68300
STARLINK-11168 [DTC]    
1 60183U 24124A   25249.54810167 -.00001340  00000+0 -61973-5 0  9995
2 60183  53.1594 348.9316 0000881  79.2964 280.8154 15.69737773 68800
STARLINK-11187 [DTC]    
1 60184U 24124B   25249.54320686 -.00001234  00000+0 -53287-5 0  9999
2 60184  53.1587 348.8992 0000859  88.5896 271.5220 15.69723773 67618
STARLINK-11180 [DTC]    
1 60185U 24124C   25249.53829742  .00002275  00000+0  23625-4 0  9992
2 60185  53.1588 348.8660 0001169  82.3141 277.8010 15.69719303 67612
STARLINK-11197 [DTC]    
1 60186U 24124D   25249.53340340  .00010508  00000+0  91582-4 0  9990
2 60186  53.1592 348.8347 0001988  88.3583 271.7663 15.69683618 67611
STARLINK-11194 [DTC]    
1 60187U 24124E   25249.52848143  .00001868  00000+0  20270-4 0  9999
2 60187  53.1590 348.7999 0001290  78.1884 281.9278 15.69722879 67617
STARLINK-11189 [DTC]    
1 60188U 24124F   25249.52367882  .00001296  00000+0  15551-4 0  9997
2 60188  53.1581 349.5009 0001145  89.3895 270.7254 15.69721271 67608
STARLINK-11183 [DTC]    
1 60189U 24124G   25249.51877916  .00002508  00000+0  25546-4 0  9993
2 60189  53.1581 349.4707 0001010  85.5432 274.5701 15.69713418 67602
STARLINK-11179 [DTC]    
1 60190U 24124H   25249.57753263  .00003594  00000+0  34494-4 0  9997
2 60190  53.1586 349.1217 0001482 119.4144 240.7022 15.69721724 67613
STARLINK-11175 [DTC]    
1 60191U 24124J   25249.57263859  .00022827  00000+0  19259-3 0  9996
2 60191  53.1585 349.0891 0001315  90.7760 269.3409 15.69730326 67614
STARLINK-11173 [DTC]    
1 60192U 24124K   25249.56772460  .00000201  00000+0  65095-5 0  9992
2 60192  53.1581 349.0569 0000973  93.3755 266.7374 15.69734180 67619
STARLINK-11172 [DTC]    
1 60193U 24124L   25249.56281604  .00000241  00000+0  68356-5 0  9995
2 60193  53.1582 349.0226 0000500  60.8164 299.2904 15.69737104 67619
STARLINK-11152 [DTC]    
1 60194U 24124M   25249.55791526  .00005700  00000+0  51819-4 0  9994
2 60194  53.1576 348.9875 0000910  97.0625 263.0497 15.69735259 68807
STARLINK-11193 [DTC]    
1 60195U 24124N   25249.55301050  .00001828  00000+0  19922-4 0  9990
2 60195  53.1579 348.9558 0001155  81.8679 278.2470 15.69738480 67617
STARLINK-31869          
1 60196U 24124P   25249.87251068 -.00003333  00000+0 -10035-3 0  9999
2 60196  53.1595  96.2239 0001000  41.3499 318.7577 15.30237296 66158
STARLINK-32023          
1 60197U 24124Q   25249.84204833  .00001022  00000+0  46637-4 0  9994
2 60197  53.1607  96.7450 0001077  86.7163 273.3961 15.30195857 66146
STARLINK-32046          
1 60198U 24124R   25249.81883393  .00000439  00000+0  26966-4 0  9990
2 60198  53.1600  96.5961 0001074  96.2729 263.8394 15.30190576 67379
STARLINK-32049          
1 60199U 24124S   25249.89786758 -.00001339  00000+0 -33091-4 0  9995
2 60199  53.1610  96.3821 0001127  84.3489 275.7640 15.30190687 67384
STARLINK-32002          
1 60200U 24124T   25249.88519734 -.00000749  00000+0 -13162-4 0  9996
2 60200  53.1597  96.3004 0000993  97.2827 262.8287 15.30203452 66156
STARLINK-32020          
1 60201U 24124U   25249.85775528 -.00002236  00000+0 -63368-4 0  9995
2 60201  53.1599  96.1261 0000889  81.3689 278.7412 15.30213678 66153
